[{"OBJECT_NAME":"FALCONSAT-10","OBJECT_ID":"2023-174AM","EPOCH":"2026-03-09T16:51:34.085376","MEAN_MOTION":15.26670596,"ECCENTRICITY":0.00089318,"INCLINATION":97.3865,"RA_OF_ASC_NODE":145.7938,"ARG_OF_PERICENTER":169.5942,"MEAN_ANOMALY":190.5483,"EPHEMERIS_TYPE":0,"CLASSIFICATION_TYPE":"U","NORAD_CAT_ID":58291,"ELEMENT_SET_NO":999,"REV_AT_EPOCH":12958,"BSTAR":0.00025968794,"MEAN_MOTION_DOT":6.748e-5,"MEAN_MOTION_DDOT":0},{"OBJECT_NAME":"STARLINK-34140","OBJECT_ID":"2025-107X","EPOCH":"2026-03-09T09:17:18.083904","MEAN_MOTION":15.27598758,"ECCENTRICITY":9.457e-5,"INCLINATION":42.9957,"RA_OF_ASC_NODE":203.2944,"ARG_OF_PERICENTER":152.0067,"MEAN_ANOMALY":208.0836,"EPHEMERIS_TYPE":0,"CLASSIFICATION_TYPE":"U","NORAD_CAT_ID":64085,"ELEMENT_SET_NO":999,"REV_AT_EPOCH":4605,"BSTAR":0.00082798546,"MEAN_MOTION_DOT":0.00022605,"MEAN_MOTION_DDOT":0}]
